GORIZONT 1 [-]          
1 11158U 78118A   23340.01170388 -.00000073  00000+0  00000+0 0  9990
2 11158  11.2695 184.4721 3318490 310.7792  24.8613  1.00235362113658
GORIZONT 2 [-]          
1 11440U 79062A   23339.85327292 -.00000162  00000+0  00000+0 0  9990
2 11440   8.0112 295.7041 0004804 308.1281 222.1720  1.00244128128752
GORIZONT 3 [-]          
1 11648U 79105A   23339.85205403 -.00000094  00000+0  00000+0 0  9991
2 11648   8.1803 297.2599 0012854 233.1750 289.0863  1.00195959113219
GORIZONT 4 [-]          
1 11841U 80049A   23340.08105188 -.00000028  00000+0  00000+0 0  9998
2 11841   9.3660 303.5405 0001951 311.2394 243.3350  0.98629400224433
GORIZONT 5 [-]          
1 13092U 82020A   23339.45279562 -.00000077  00000+0  00000+0 0  9990
2 13092  10.4156 309.0242 0034013 228.2064 348.9027  0.98531432112483
GORIZONT 6 [-]          
1 13624U 82103A   23340.12394795 -.00000273  00000+0  00000+0 0  9993
2 13624   9.3578 309.1866 0001862 270.5029 211.8521  1.00327821111675
GORIZONT 7 [-]          
1 14160U 83066A   23339.82324951 -.00000089  00000+0  00000+0 0  9995
2 14160  11.1236 319.0119 0010592 322.5535  22.6850  0.98347733145652
GORIZONT 8 [-]          
1 14532U 83118A   23339.52827130 -.00000023  00000+0  00000+0 0  9998
2 14532  11.3255 320.9496 0029449 163.7213 187.9324  0.98269023111419
GORIZONT 9 [-]          
1 14940U 84041A   23340.00188125 -.00000116  00000+0  00000+0 0  9999
2 14940  10.5074 318.8532 0005371 237.8621 314.9681  1.00322170112756
GORIZONT 10 [-]         
1 15144U 84078A   23339.57017069 -.00000132  00000+0  00000+0 0  9992
2 15144  10.6194 319.8809 0001323 258.6322 319.1578  1.00379144145309
GORIZONT 11 [-]         
1 15484U 85007A   23339.86180058 -.00000351  00000+0  00000+0 0  9996
2 15484  10.8238 321.9228 0003152 197.2233 353.3633  1.00209605143367
GORIZONT 12 [-]         
1 16769U 86044A   23339.49628167 -.00000251  00000+0  00000+0 0  9991
2 16769  11.5353 327.4338 0003145 258.5620 117.6491  1.00338568137992
GORIZONT 13 [-]         
1 17083U 86090A   23339.86232272 -.00000134  00000+0  00000+0 0  9991
2 17083  13.5127 334.8446 0013294 341.2484 198.9965  0.96726723109703
GORIZONT 14 [-]         
1 17969U 87040A   23339.76127793 -.00000157  00000+0  00000+0 0  9995
2 17969  12.3076 326.0230 0031242 189.0563 175.7413  0.97660087110837
GORIZONT 15 [-]         
1 19017U 88028A   23339.62942649 -.00000071  00000+0  00000+0 0  9993
2 19017  13.8617 337.5218 0036491 171.5114 191.8512  0.97828400110465
GORIZONT 16 [-]         
1 19397U 88071A   23339.79409687 -.00000278  00000+0  00000+0 0  9999
2 19397  12.7019 336.1929 0011883  74.4711  96.2856  0.99988494128994
GORIZONT 17 [-]         
1 19765U 89004A   23339.44073119 -.00000136  00000+0  00000+0 0  9997
2 19765  13.3087 339.6264 0022444 149.1760  33.9744  0.99065322126419
GORIZONT 18 [-]         
1 20107U 89052A   23339.29285450 -.00000280  00000+0  00000+0 0  9998
2 20107  13.3792 340.8597 0033961 326.1461  27.5852  0.99405583125211
GORIZONT 19 [-]         
1 20263U 89081A   23339.58035729 -.00000193  00000+0  00000+0 0  9990
2 20263  13.0935 339.9809 0005449 221.2875 168.9932  1.00193702 38075
GORIZONT 20 [-]         
1 20659U 90054A   23339.63264633  .00000058  00000+0  00000+0 0  9994
2 20659  13.5893 342.7627 0007480 191.9033 183.4808  1.00298239122426
GORIZONT 21 [-]         
1 20923U 90094A   23339.76336647 -.00000065  00000+0  00000+0 0  9990
2 20923  13.6156 343.5104 0007120 221.6686 136.8698  1.00294449121177
GORIZONT 22 [-]         
1 20953U 90102A   23339.69765236  .00000112  00000+0  00000+0 0  9997
2 20953  13.5822 343.9288 0001256 355.9498   8.2780  1.00209042121104
GORIZONT 23 [-]         
1 21533U 91046A   23339.64301144 -.00000033  00000+0  00000+0 0  9992
2 21533  14.4269 348.1321 0004652 293.6934 230.2625  0.98909090 37540
GORIZONT 24 [-]         
1 21759U 91074A   23339.65907642 -.00000016  00000+0  00000+0 0  9990
2 21759  14.6219 350.0949 0020071 236.6252 311.8449  0.98442674115859
GORIZONT 25 [-]         
1 21922U 92017A   23339.69869663  .00000089  00000+0  00000+0 0  9993
2 21922  14.1532 349.3342 0027175  96.6400 267.9478  0.99851655115715
GORIZONT 26 [-]         
1 22041U 92043A   23339.39646653 -.00000237  00000+0  00000+0 0  9990
2 22041  14.3663 351.4136 0033416 246.1051 288.7711  0.99244219114294
GORIZONT 27 [-]         
1 22245U 92082A   23339.46521453 -.00000278  00000+0  00000+0 0  9992
2 22245  14.2761 350.8767 0010046  14.7881 170.3791  1.00164738117854
GORIZONT 28 [-]         
1 22880U 93069A   23339.53135183 -.00000085  00000+0  00000+0 0  9998
2 22880  14.4999 354.8253 0034195 148.3123  28.6905  0.99648333109917
GORIZONT 29 [-]         
1 22907U 93072A   23339.46722005 -.00000253  00000+0  00000+0 0  9996
2 22907  14.4007 354.2255 0008625 344.2750  50.8006  1.00165203109917
GORIZONT 30 [-]         
1 23108U 94030A   23339.69965387  .00000132  00000+0  00000+0 0  9997
2 23108  14.4307 355.1293 0003609 215.4546 148.1325  1.00187281108199
GORIZONT 31 [-]         
1 23775U 96005A   23339.40020851 -.00000266  00000+0  00000+0 0  9997
2 23775  14.4840   1.4436 0020613 214.5510 329.8008  0.99897903101810
GORIZONT 32 [-]         
1 23880U 96034A   23339.56677010 -.00000161  00000+0  00000+0 0  9992
2 23880  14.4419   1.9111 0006594 356.3492   4.6260  1.00137882100778
GORIZONT 33 [-]         
1 26372U 00029A   23339.83821741  .00000058  00000+0  00000+0 0  9996
2 26372  13.4056  13.3967 0002506 167.2474 204.8355  1.00318036 86164
